{"type":"FeatureCollection", "features": [
{"type":"Feature","geometry":{"type":"Polygon","coordinates":[[[128.31762,35.32558],[128.31109,35.32261],[128.30523,35.3223],[128.30027,35.32352],[128.29335,35.32371],[128.28665,35.3257],[128.28091,35.32933],[128.27773,35.33097],[128.27518,35.33315],[128.27464,35.33474],[128.27114,35.33737],[128.2687,35.33798],[128.26679,35.33744],[128.26313,35.3353],[128.2617,35.33136],[128.26016,35.33019],[128.25549,35.33168],[128.25387,35.33207],[128.25222,35.33046],[128.2523,35.32523],[128.25139,35.32356],[128.24869,35.32101],[128.24396,35.32253],[128.24142,35.31959],[128.24038,35.31765],[128.24056,35.31394],[128.23709,35.31316],[128.23111,35.31516],[128.22569,35.31527],[128.22486,35.31453],[128.22216,35.31566],[128.22136,35.31823],[128.2172,35.3184],[128.21447,35.31547],[128.21385,35.31415],[128.21663,35.31169],[128.2206,35.30504],[128.22382,35.30248],[128.22651,35.30096],[128.22782,35.29946],[128.22632,35.29789],[128.22702,35.29474],[128.22876,35.29204],[128.23037,35.29089],[128.22898,35.28717],[128.23196,35.28456],[128.23606,35.2831],[128.2386,35.28042],[128.24288,35.27848],[128.24785,35.27794],[128.25029,35.27946],[128.25338,35.27897],[128.25466,35.27768],[128.25896,35.27541],[128.26184,35.27492],[128.26601,35.27648],[128.2673,35.27753],[128.2714,35.2784],[128.27915,35.27796],[128.28437,35.27863],[128.28581,35.27687],[128.28897,35.27784],[128.29489,35.27848],[128.29896,35.27983],[128.30154,35.28146],[128.30212,35.28359],[128.29071,35.2971],[128.28902,35.30109],[128.289,35.30306],[128.29055,35.30771],[128.29209,35.31017],[128.29505,35.31317],[128.29774,35.31477],[128.30586,35.31694],[128.31232,35.31916],[128.31551,35.32145],[128.31677,35.32294],[128.31762,35.32558]]]},"properties":{"adm_nm":"경상남도 의령군 의령읍","adm_cd2":"4872025000","sgg":"48720","sido":"48","sidonm":"경상남도","sggnm":"의령군","adm_cd":"38510110"}},
{"type":"Feature","geometry":{"type":"Polygon","coordinates":[[[128.23477,35.40082],[128.22905,35.40352],[128.22487,35.40248],[128.22315,35.4007],[128.21604,35.39943],[128.20943,35.39875],[128.20763,35.39776],[128.20598,35.39542],[128.20226,35.39312],[128.20328,35.38926],[128.20277,35.38547],[128.20447,35.38202],[128.20344,35.37718],[128.20524,35.37637],[128.20895,35.37352],[128.21031,35.36764],[128.20973,35.3592],[128.20837,35.35313],[128.2055,35.35099],[128.20377,35.34818],[128.2062,35.34627],[128.20761,35.3438],[128.20823,35.33951],[128.20624,35.33576],[128.20573,35.33257],[128.20792,35.33039],[128.20275,35.32775],[128.20222,35.3251],[128.20312,35.3191],[128.20443,35.31701],[128.20793,35.31583],[128.21242,35.3133],[128.21385,35.31415],[128.21447,35.31547],[128.2172,35.3184],[128.22136,35.31823],[128.22216,35.31566],[128.22486,35.31453],[128.22569,35.31527],[128.23111,35.31516],[128.23709,35.31316],[128.24056,35.31394],[128.24038,35.31765],[128.24142,35.31959],[128.24396,35.32253],[128.24869,35.32101],[128.25139,35.32356],[128.2523,35.32523],[128.25222,35.33046],[128.25387,35.33207],[128.25549,35.33168],[128.25602,35.33717],[128.2548,35.34077],[128.25181,35.34255],[128.24897,35.35386],[128.2503,35.35825],[128.24856,35.36179],[128.24636,35.36492],[128.24702,35.37161],[128.24872,35.37647],[128.24636,35.37879],[128.24464,35.37961],[128.24371,35.38202],[128.24536,35.38614],[128.24155,35.38784],[128.24,35.39188],[128.2362,35.39881],[128.23477,35.40082]]]},"properties":{"adm_nm":"경상남도 의령군 가례면","adm_cd2":"4872031000","sgg":"48720","sido":"48","sidonm":"경상남도","sggnm":"의령군","adm_cd":"38510310"}},
{"type":"Feature","geometry":{"type":"Polygon","coordinates":[[[128.20443,35.31701],[128.20312,35.3191],[128.20222,35.3251],[128.20275,35.32775],[128.20792,35.33039],[128.20573,35.33257],[128.20624,35.33576],[128.20823,35.33951],[128.20761,35.3438],[128.2062,35.34627],[128.20377,35.34818],[128.2055,35.35099],[128.20837,35.35313],[128.20973,35.3592],[128.21031,35.36764],[128.20895,35.37352],[128.20524,35.37637],[128.20344,35.37718],[128.20174,35.37629],[128.19781,35.37627],[128.19505,35.37346],[128.19392,35.37304],[128.18306,35.37104],[128.17459,35.36491],[128.16844,35.36416],[128.16636,35.36463],[128.16283,35.3669],[128.15814,35.36802],[128.15544,35.36658],[128.15274,35.36628],[128.14996,35.3568],[128.15044,35.35489],[128.15264,35.35196],[128.15448,35.35108],[128.15667,35.34976],[128.15846,35.34573],[128.15974,35.34443],[128.16317,35.34269],[128.16388,35.34179],[128.16423,35.33614],[128.16599,35.3348],[128.17226,35.32806],[128.17295,35.328],[128.17806,35.3297],[128.18218,35.32933],[128.18737,35.32752],[128.19016,35.32539],[128.19202,35.32065],[128.1941,35.31746],[128.1989,35.31557],[128.20084,35.31527],[128.20443,35.31701]]]},"properties":{"adm_nm":"경상남도 의령군 칠곡면","adm_cd2":"4872032000","sgg":"48720","sido":"48","sidonm":"경상남도","sggnm":"의령군","adm_cd":"38510320"}},
{"type":"Feature","geometry":{"type":"Polygon","coordinates":[[[128.20226,35.39312],[128.19359,35.39402],[128.19135,35.39611],[128.18946,35.39867],[128.17952,35.39574],[128.17657,35.39563],[128.17192,35.39426],[128.16662,35.39426],[128.16448,35.39347],[128.16129,35.39122],[128.1561,35.39009],[128.15433,35.38859],[128.14762,35.38583],[128.14307,35.3856],[128.13471,35.38659],[128.12926,35.38773],[128.12635,35.38596],[128.12586,35.38315],[128.12975,35.3734],[128.12702,35.37235],[128.12448,35.37421],[128.1238,35.37555],[128.1137,35.3806],[128.11223,35.38226],[128.11089,35.38055],[128.10641,35.37648],[128.09874,35.37054],[128.09532,35.36815],[128.08819,35.36851],[128.08034,35.37013],[128.08445,35.36846],[128.08802,35.36607],[128.09223,35.36572],[128.09782,35.36712],[128.1024,35.36608],[128.10108,35.36304],[128.09974,35.36155],[128.09761,35.36125],[128.0956,35.35976],[128.09464,35.35779],[128.09481,35.35627],[128.0989,35.35476],[128.09909,35.35332],[128.09463,35.34996],[128.09387,35.34894],[128.09426,35.34473],[128.09741,35.34171],[128.10418,35.33955],[128.10701,35.33801],[128.11037,35.33748],[128.1143,35.33465],[128.11521,35.33285],[128.11469,35.33086],[128.11594,35.33026],[128.12404,35.33308],[128.13,35.33637],[128.13309,35.33883],[128.13367,35.34128],[128.13821,35.34257],[128.14054,35.3453],[128.14526,35.34795],[128.15448,35.35108],[128.15264,35.35196],[128.15044,35.35489],[128.14996,35.3568],[128.15274,35.36628],[128.15544,35.36658],[128.15814,35.36802],[128.16283,35.3669],[128.16636,35.36463],[128.16844,35.36416],[128.17459,35.36491],[128.18306,35.37104],[128.19392,35.37304],[128.19505,35.37346],[128.19781,35.37627],[128.20174,35.37629],[128.20344,35.37718],[128.20447,35.38202],[128.20277,35.38547],[128.20328,35.38926],[128.20226,35.39312]]]},"properties":{"adm_nm":"경상남도 의령군 대의면","adm_cd2":"4872033000","sgg":"48720","sido":"48","sidonm":"경상남도","sggnm":"의령군","adm_cd":"38510330"}},
{"type":"Feature","geometry":{"type":"Polygon","coordinates":[[[128.20443,35.31701],[128.20084,35.31527],[128.1989,35.31557],[128.1941,35.31746],[128.19202,35.32065],[128.19016,35.32539],[128.18737,35.32752],[128.18218,35.32933],[128.17806,35.3297],[128.17295,35.328],[128.17427,35.32741],[128.17837,35.32247],[128.17885,35.31988],[128.17763,35.31715],[128.17419,35.31475],[128.17277,35.30807],[128.17493,35.30172],[128.17727,35.29931],[128.17734,35.29775],[128.17417,35.29432],[128.17453,35.29205],[128.17667,35.28863],[128.17903,35.28669],[128.17996,35.28513],[128.17861,35.28166],[128.18024,35.27924],[128.18471,35.27537],[128.18713,35.27543],[128.18986,35.27232],[128.19079,35.26753],[128.19507,35.26606],[128.19567,35.26333],[128.19531,35.25992],[128.1937,35.25724],[128.19408,35.25628],[128.19927,35.25358],[128.2011,35.25359],[128.20218,35.25532],[128.20306,35.25862],[128.20552,35.26285],[128.20927,35.26469],[128.21155,35.26495],[128.2135,35.26428],[128.21481,35.26269],[128.21748,35.26452],[128.21919,35.26473],[128.22281,35.26297],[128.22655,35.25981],[128.22844,35.25658],[128.2299,35.25552],[128.23351,35.25419],[128.23948,35.25354],[128.24811,35.25375],[128.25329,35.2551],[128.26001,35.25733],[128.2649,35.25697],[128.26781,35.25633],[128.27296,35.25614],[128.27424,35.25737],[128.27729,35.26456],[128.27946,35.27152],[128.28163,35.27468],[128.28581,35.27687],[128.28437,35.27863],[128.27915,35.27796],[128.2714,35.2784],[128.2673,35.27753],[128.26601,35.27648],[128.26184,35.27492],[128.25896,35.27541],[128.25466,35.27768],[128.25338,35.27897],[128.25029,35.27946],[128.24785,35.27794],[128.24288,35.27848],[128.2386,35.28042],[128.23606,35.2831],[128.23196,35.28456],[128.22898,35.28717],[128.23037,35.29089],[128.22876,35.29204],[128.22702,35.29474],[128.22632,35.29789],[128.22782,35.29946],[128.22651,35.30096],[128.22382,35.30248],[128.2206,35.30504],[128.21663,35.31169],[128.21385,35.31415],[128.21242,35.3133],[128.20793,35.31583],[128.20443,35.31701]]]},"properties":{"adm_nm":"경상남도 의령군 화정면","adm_cd2":"4872034000","sgg":"48720","sido":"48","sidonm":"경상남도","sggnm":"의령군","adm_cd":"38510340"}},
{"type":"Feature","geometry":{"type":"Polygon","coordinates":[[[128.28477,35.38786],[128.28301,35.3897],[128.28173,35.39205],[128.27581,35.39153],[128.27132,35.39574],[128.26903,35.39727],[128.26479,35.39293],[128.26084,35.39307],[128.25693,35.39265],[128.25482,35.39003],[128.25223,35.38839],[128.24877,35.38831],[128.24536,35.38614],[128.24371,35.38202],[128.24464,35.37961],[128.24636,35.37879],[128.24872,35.37647],[128.24702,35.37161],[128.24636,35.36492],[128.24856,35.36179],[128.2503,35.35825],[128.24897,35.35386],[128.25181,35.34255],[128.2548,35.34077],[128.25602,35.33717],[128.25549,35.33168],[128.26016,35.33019],[128.2617,35.33136],[128.26313,35.3353],[128.26679,35.33744],[128.2687,35.33798],[128.27114,35.33737],[128.27464,35.33474],[128.27518,35.33315],[128.27773,35.33097],[128.28091,35.32933],[128.28665,35.3257],[128.29335,35.32371],[128.30027,35.32352],[128.30523,35.3223],[128.31109,35.32261],[128.31762,35.32558],[128.31732,35.32909],[128.31597,35.33221],[128.3135,35.33508],[128.31187,35.33813],[128.31104,35.34727],[128.31205,35.3532],[128.31362,35.35555],[128.31402,35.35854],[128.31494,35.36103],[128.3134,35.36414],[128.30928,35.36489],[128.30723,35.36314],[128.30348,35.36123],[128.30049,35.36239],[128.2972,35.36261],[128.29437,35.36335],[128.29116,35.36664],[128.2902,35.36893],[128.29091,35.37261],[128.28825,35.37811],[128.28699,35.37945],[128.28477,35.38786]]]},"properties":{"adm_nm":"경상남도 의령군 용덕면","adm_cd2":"4872035000","sgg":"48720","sido":"48","sidonm":"경상남도","sggnm":"의령군","adm_cd":"38510350"}},
{"type":"Feature","geometry":{"type":"Polygon","coordinates":[[[128.34667,35.41264],[128.34279,35.41253],[128.341,35.41581],[128.34087,35.41803],[128.33778,35.41966],[128.33439,35.42264],[128.33265,35.42305],[128.32722,35.42187],[128.32666,35.42008],[128.32719,35.41777],[128.32509,35.41433],[128.3244,35.41195],[128.3228,35.41044],[128.31945,35.41136],[128.31581,35.40719],[128.31042,35.40384],[128.30868,35.40393],[128.30566,35.40562],[128.30338,35.40369],[128.30263,35.40176],[128.29988,35.39996],[128.29754,35.39688],[128.29746,35.3933],[128.29497,35.39111],[128.29126,35.39189],[128.28771,35.38909],[128.28477,35.38786],[128.28699,35.37945],[128.28825,35.37811],[128.29091,35.37261],[128.2902,35.36893],[128.29116,35.36664],[128.29437,35.36335],[128.2972,35.36261],[128.30049,35.36239],[128.30348,35.36123],[128.30723,35.36314],[128.30928,35.36489],[128.3134,35.36414],[128.31494,35.36103],[128.31707,35.36226],[128.31919,35.36265],[128.32579,35.36279],[128.33292,35.36147],[128.33846,35.35959],[128.34126,35.35719],[128.34586,35.35112],[128.34876,35.34519],[128.35025,35.34278],[128.35433,35.33928],[128.35716,35.33818],[128.37088,35.33552],[128.37408,35.3341],[128.37789,35.33323],[128.38032,35.33327],[128.38865,35.33424],[128.39402,35.33464],[128.39609,35.33611],[128.39548,35.33871],[128.39428,35.34059],[128.38385,35.34884],[128.3825,35.35035],[128.38164,35.35306],[128.38272,35.35619],[128.38049,35.35529],[128.37938,35.35367],[128.37635,35.35373],[128.37182,35.35735],[128.36994,35.35942],[128.36596,35.36136],[128.3627,35.36218],[128.36013,35.36697],[128.35702,35.36957],[128.35417,35.37073],[128.35168,35.3738],[128.35193,35.37576],[128.35434,35.3811],[128.35402,35.38481],[128.35175,35.3889],[128.3503,35.39334],[128.35036,35.3957],[128.35302,35.39745],[128.35325,35.39992],[128.35466,35.40305],[128.35404,35.40479],[128.35216,35.40625],[128.34867,35.40784],[128.34681,35.40982],[128.34667,35.41264]]]},"properties":{"adm_nm":"경상남도 의령군 정곡면","adm_cd2":"4872036000","sgg":"48720","sido":"48","sidonm":"경상남도","sggnm":"의령군","adm_cd":"38510360"}},
{"type":"Feature","geometry":{"type":"Polygon","coordinates":[[[128.43652,35.3924],[128.43121,35.40325],[128.42933,35.4083],[128.4263,35.41364],[128.42279,35.41686],[128.41781,35.41823],[128.40827,35.41888],[128.39618,35.42176],[128.39192,35.42361],[128.38781,35.42598],[128.38516,35.42806],[128.37705,35.43903],[128.37622,35.44038],[128.37562,35.43919],[128.37536,35.43418],[128.37469,35.43128],[128.37214,35.42966],[128.36947,35.42605],[128.36921,35.42424],[128.3661,35.42004],[128.36494,35.41656],[128.36216,35.41601],[128.3588,35.41745],[128.35407,35.41781],[128.35097,35.41557],[128.34903,35.41515],[128.34667,35.41264],[128.34681,35.40982],[128.34867,35.40784],[128.35216,35.40625],[128.35404,35.40479],[128.35466,35.40305],[128.35325,35.39992],[128.35302,35.39745],[128.35036,35.3957],[128.3503,35.39334],[128.35175,35.3889],[128.35402,35.38481],[128.35434,35.3811],[128.35193,35.37576],[128.35168,35.3738],[128.35417,35.37073],[128.35702,35.36957],[128.36013,35.36697],[128.3627,35.36218],[128.36596,35.36136],[128.36994,35.35942],[128.37182,35.35735],[128.37635,35.35373],[128.37938,35.35367],[128.38049,35.35529],[128.38272,35.35619],[128.3856,35.3592],[128.39197,35.36029],[128.40206,35.36083],[128.40674,35.36048],[128.4124,35.35859],[128.41425,35.35878],[128.41572,35.36219],[128.41746,35.36284],[128.42245,35.36243],[128.42734,35.36431],[128.42839,35.36627],[128.42631,35.36915],[128.42279,35.3728],[128.4209,35.37569],[128.42023,35.37874],[128.42418,35.38401],[128.42799,35.3884],[128.43161,35.39127],[128.43652,35.3924]]]},"properties":{"adm_nm":"경상남도 의령군 지정면","adm_cd2":"4872037000","sgg":"48720","sido":"48","sidonm":"경상남도","sggnm":"의령군","adm_cd":"38510370"}},
{"type":"Feature","geometry":{"type":"Polygon","coordinates":[[[128.37392,35.51835],[128.37224,35.51896],[128.3696,35.51499],[128.36964,35.51125],[128.37293,35.5067],[128.37322,35.50351],[128.37151,35.50179],[128.36715,35.50032],[128.36495,35.50027],[128.36663,35.4965],[128.36702,35.49371],[128.36863,35.49262],[128.36872,35.4909],[128.3674,35.48989],[128.36674,35.48664],[128.36843,35.48575],[128.36965,35.48383],[128.37139,35.47944],[128.36984,35.47724],[128.36763,35.47241],[128.36617,35.47],[128.36659,35.46821],[128.36418,35.46445],[128.36357,35.4623],[128.36462,35.45801],[128.36746,35.45542],[128.36823,35.45345],[128.37153,35.45198],[128.37527,35.45206],[128.37607,35.45518],[128.37722,35.45721],[128.38032,35.45882],[128.39163,35.46111],[128.40831,35.46725],[128.41257,35.46938],[128.41494,35.47099],[128.42131,35.47621],[128.42386,35.47959],[128.42595,35.48332],[128.42636,35.4865],[128.42591,35.48837],[128.42382,35.49191],[128.42119,35.49403],[128.41652,35.49704],[128.41043,35.49918],[128.40227,35.50288],[128.39779,35.50569],[128.38295,35.51239],[128.3793,35.51429],[128.37392,35.51835]]]},"properties":{"adm_nm":"경상남도 의령군 낙서면","adm_cd2":"4872038000","sgg":"48720","sido":"48","sidonm":"경상남도","sggnm":"의령군","adm_cd":"38510380"}},
{"type":"Feature","geometry":{"type":"Polygon","coordinates":[[[128.36495,35.50027],[128.36022,35.50304],[128.35643,35.50267],[128.35336,35.50135],[128.35264,35.49834],[128.34836,35.49929],[128.34652,35.50036],[128.34593,35.50219],[128.34316,35.50508],[128.33973,35.50687],[128.3392,35.50935],[128.33797,35.50965],[128.32994,35.50752],[128.3228,35.50811],[128.32111,35.50883],[128.31739,35.51171],[128.31731,35.51292],[128.31546,35.51558],[128.31221,35.51672],[128.30801,35.51701],[128.30414,35.51349],[128.30122,35.51373],[128.29904,35.51587],[128.29467,35.51725],[128.29286,35.5173],[128.29162,35.51625],[128.29017,35.51249],[128.2858,35.51112],[128.27639,35.50979],[128.27036,35.5104],[128.26926,35.511],[128.26626,35.50944],[128.26539,35.50761],[128.26231,35.50431],[128.26099,35.50176],[128.26173,35.50041],[128.26189,35.49718],[128.26794,35.49581],[128.27049,35.49396],[128.27764,35.4918],[128.28083,35.4899],[128.28217,35.4897],[128.28563,35.49144],[128.28827,35.49326],[128.29311,35.49292],[128.30214,35.49806],[128.30254,35.5018],[128.30602,35.49996],[128.30701,35.49857],[128.30669,35.49708],[128.30893,35.49524],[128.30885,35.49184],[128.30945,35.48915],[128.31145,35.4858],[128.31165,35.48397],[128.30972,35.48255],[128.30991,35.48054],[128.31175,35.47804],[128.31419,35.47105],[128.31214,35.46523],[128.31263,35.45945],[128.31441,35.45642],[128.31569,35.45305],[128.31508,35.45052],[128.31633,35.44864],[128.31821,35.44906],[128.32348,35.44898],[128.3263,35.44617],[128.33105,35.44494],[128.33363,35.44471],[128.33986,35.44729],[128.34427,35.44981],[128.3457,35.44824],[128.34671,35.44588],[128.34862,35.44424],[128.35302,35.44524],[128.3546,35.43526],[128.35526,35.43278],[128.35643,35.43153],[128.3587,35.43079],[128.35751,35.4271],[128.35513,35.42524],[128.35371,35.42291],[128.35407,35.41781],[128.3588,35.41745],[128.36216,35.41601],[128.36494,35.41656],[128.3661,35.42004],[128.36921,35.42424],[128.36947,35.42605],[128.37214,35.42966],[128.37469,35.43128],[128.37536,35.43418],[128.37562,35.43919],[128.37622,35.44038],[128.37448,35.44512],[128.37441,35.4473],[128.37527,35.45206],[128.37153,35.45198],[128.36823,35.45345],[128.36746,35.45542],[128.36462,35.45801],[128.36357,35.4623],[128.36418,35.46445],[128.36659,35.46821],[128.36617,35.47],[128.36763,35.47241],[128.36984,35.47724],[128.37139,35.47944],[128.36965,35.48383],[128.36843,35.48575],[128.36674,35.48664],[128.3674,35.48989],[128.36872,35.4909],[128.36863,35.49262],[128.36702,35.49371],[128.36663,35.4965],[128.36495,35.50027]]]},"properties":{"adm_nm":"경상남도 의령군 부림면","adm_cd2":"4872039000","sgg":"48720","sido":"48","sidonm":"경상남도","sggnm":"의령군","adm_cd":"38510390"}},
{"type":"Feature","geometry":{"type":"Polygon","coordinates":[[[128.31508,35.45052],[128.31569,35.45305],[128.31441,35.45642],[128.31263,35.45945],[128.31214,35.46523],[128.31419,35.47105],[128.31175,35.47804],[128.30991,35.48054],[128.30972,35.48255],[128.31165,35.48397],[128.31145,35.4858],[128.30945,35.48915],[128.30885,35.49184],[128.30893,35.49524],[128.30669,35.49708],[128.30701,35.49857],[128.30602,35.49996],[128.30254,35.5018],[128.30214,35.49806],[128.29311,35.49292],[128.28827,35.49326],[128.28563,35.49144],[128.28217,35.4897],[128.28083,35.4899],[128.27764,35.4918],[128.27049,35.49396],[128.26794,35.49581],[128.26189,35.49718],[128.25698,35.49537],[128.25499,35.49373],[128.24917,35.49312],[128.24679,35.49442],[128.23987,35.49389],[128.23683,35.49282],[128.23048,35.48896],[128.23048,35.4905],[128.22835,35.49105],[128.22071,35.48597],[128.21436,35.48467],[128.20945,35.48292],[128.20745,35.47898],[128.2063,35.47762],[128.20132,35.47757],[128.20058,35.47522],[128.20571,35.4706],[128.20631,35.46913],[128.21049,35.46727],[128.21507,35.46482],[128.21671,35.46285],[128.21659,35.46137],[128.22089,35.46097],[128.2243,35.46334],[128.22864,35.46454],[128.23354,35.46643],[128.2373,35.46523],[128.23897,35.46539],[128.24608,35.47014],[128.24883,35.47038],[128.25129,35.46928],[128.25357,35.46729],[128.25844,35.46739],[128.26173,35.46618],[128.2638,35.46416],[128.26772,35.46229],[128.27099,35.4617],[128.27256,35.45996],[128.27251,35.45835],[128.27792,35.45819],[128.28228,35.46008],[128.28577,35.46003],[128.2927,35.45764],[128.29428,35.45615],[128.29494,35.45371],[128.30267,35.4511],[128.30847,35.4498],[128.31352,35.45088],[128.31508,35.45052]]]},"properties":{"adm_nm":"경상남도 의령군 봉수면","adm_cd2":"4872040000","sgg":"48720","sido":"48","sidonm":"경상남도","sggnm":"의령군","adm_cd":"38510400"}},
{"type":"Feature","geometry":{"type":"Polygon","coordinates":[[[128.27251,35.45835],[128.27256,35.45996],[128.27099,35.4617],[128.26772,35.46229],[128.2638,35.46416],[128.26173,35.46618],[128.25844,35.46739],[128.25357,35.46729],[128.25129,35.46928],[128.24883,35.47038],[128.24608,35.47014],[128.23897,35.46539],[128.2373,35.46523],[128.23354,35.46643],[128.22864,35.46454],[128.2243,35.46334],[128.22089,35.46097],[128.21659,35.46137],[128.21489,35.46094],[128.21121,35.4618],[128.20812,35.45987],[128.2077,35.45823],[128.20852,35.45305],[128.20713,35.44819],[128.20423,35.44505],[128.20249,35.44044],[128.20228,35.43595],[128.20018,35.43208],[128.19723,35.4295],[128.19462,35.42812],[128.1913,35.42393],[128.18738,35.42115],[128.18572,35.41917],[128.18676,35.41604],[128.18841,35.41531],[128.19099,35.41163],[128.1916,35.40902],[128.18971,35.40305],[128.18996,35.40028],[128.18946,35.39867],[128.19135,35.39611],[128.19359,35.39402],[128.20226,35.39312],[128.20598,35.39542],[128.20763,35.39776],[128.20943,35.39875],[128.21604,35.39943],[128.22315,35.4007],[128.22487,35.40248],[128.22905,35.40352],[128.23477,35.40082],[128.23775,35.40277],[128.24178,35.40794],[128.24369,35.41218],[128.24482,35.41578],[128.25229,35.41837],[128.25408,35.42216],[128.26045,35.42365],[128.2624,35.42298],[128.26734,35.42251],[128.2729,35.42297],[128.2741,35.42462],[128.27444,35.42682],[128.27372,35.43113],[128.27264,35.43313],[128.27469,35.43362],[128.2771,35.43321],[128.27969,35.43542],[128.28017,35.43723],[128.27853,35.43934],[128.27469,35.44265],[128.27328,35.44464],[128.27386,35.4463],[128.27302,35.45135],[128.27122,35.45375],[128.27251,35.45835]]]},"properties":{"adm_nm":"경상남도 의령군 궁류면","adm_cd2":"4872041500","sgg":"48720","sido":"48","sidonm":"경상남도","sggnm":"의령군","adm_cd":"38510410"}},
{"type":"Feature","geometry":{"type":"Polygon","coordinates":[[[128.31508,35.45052],[128.31352,35.45088],[128.30847,35.4498],[128.30267,35.4511],[128.29494,35.45371],[128.29428,35.45615],[128.2927,35.45764],[128.28577,35.46003],[128.28228,35.46008],[128.27792,35.45819],[128.27251,35.45835],[128.27122,35.45375],[128.27302,35.45135],[128.27386,35.4463],[128.27328,35.44464],[128.27469,35.44265],[128.27853,35.43934],[128.28017,35.43723],[128.27969,35.43542],[128.2771,35.43321],[128.27469,35.43362],[128.27264,35.43313],[128.27372,35.43113],[128.27444,35.42682],[128.2741,35.42462],[128.2729,35.42297],[128.26734,35.42251],[128.2624,35.42298],[128.26045,35.42365],[128.25408,35.42216],[128.25229,35.41837],[128.24482,35.41578],[128.24369,35.41218],[128.24178,35.40794],[128.23775,35.40277],[128.23477,35.40082],[128.2362,35.39881],[128.24,35.39188],[128.24155,35.38784],[128.24536,35.38614],[128.24877,35.38831],[128.25223,35.38839],[128.25482,35.39003],[128.25693,35.39265],[128.26084,35.39307],[128.26479,35.39293],[128.26903,35.39727],[128.27132,35.39574],[128.27581,35.39153],[128.28173,35.39205],[128.28301,35.3897],[128.28477,35.38786],[128.28771,35.38909],[128.29126,35.39189],[128.29497,35.39111],[128.29746,35.3933],[128.29754,35.39688],[128.29988,35.39996],[128.30263,35.40176],[128.30338,35.40369],[128.30566,35.40562],[128.30868,35.40393],[128.31042,35.40384],[128.31581,35.40719],[128.31945,35.41136],[128.3228,35.41044],[128.3244,35.41195],[128.32509,35.41433],[128.32719,35.41777],[128.32666,35.42008],[128.32722,35.42187],[128.33265,35.42305],[128.33439,35.42264],[128.33778,35.41966],[128.34087,35.41803],[128.341,35.41581],[128.34279,35.41253],[128.34667,35.41264],[128.34903,35.41515],[128.35097,35.41557],[128.35407,35.41781],[128.35371,35.42291],[128.35513,35.42524],[128.35751,35.4271],[128.3587,35.43079],[128.35643,35.43153],[128.35526,35.43278],[128.3546,35.43526],[128.35302,35.44524],[128.34862,35.44424],[128.34671,35.44588],[128.3457,35.44824],[128.34427,35.44981],[128.33986,35.44729],[128.33363,35.44471],[128.33105,35.44494],[128.3263,35.44617],[128.32348,35.44898],[128.31821,35.44906],[128.31633,35.44864],[128.31508,35.45052]]]},"properties":{"adm_nm":"경상남도 의령군 유곡면","adm_cd2":"4872042000","sgg":"48720","sido":"48","sidonm":"경상남도","sggnm":"의령군","adm_cd":"38510420"}},
{"type":"Feature","geometry":{"type":"Polygon","coordinates":[[[128.43158,35.31261],[128.42891,35.31421],[128.42453,35.31434],[128.4222,35.313],[128.41971,35.31377],[128.41804,35.31625],[128.41628,35.31681],[128.41315,35.31597],[128.40829,35.31849],[128.40505,35.31815],[128.40132,35.32056],[128.40072,35.31903],[128.40306,35.31724],[128.40301,35.3163],[128.39273,35.31412],[128.39566,35.30514],[128.38559,35.30279],[128.38284,35.30492],[128.37749,35.30388],[128.37044,35.30086],[128.36774,35.29727],[128.36882,35.29677],[128.37012,35.29418],[128.36661,35.28998],[128.368,35.28703],[128.36902,35.28635],[128.3686,35.28272],[128.36645,35.27872],[128.36383,35.27731],[128.36441,35.27037],[128.36635,35.26754],[128.36625,35.26424],[128.36471,35.26372],[128.36462,35.25815],[128.36675,35.25565],[128.36721,35.2534],[128.36675,35.2512],[128.37059,35.24436],[128.3707,35.24145],[128.37239,35.23624],[128.37556,35.2344],[128.37814,35.23393],[128.37866,35.22807],[128.38063,35.22738],[128.38227,35.22558],[128.38347,35.22288],[128.38487,35.22207],[128.38661,35.22536],[128.39121,35.23149],[128.3949,35.23184],[128.39923,35.23443],[128.39747,35.23706],[128.40067,35.24175],[128.4066,35.24119],[128.41306,35.23965],[128.41501,35.23996],[128.41554,35.24215],[128.41369,35.24367],[128.4143,35.25],[128.41571,35.25495],[128.41714,35.2563],[128.41956,35.25702],[128.42149,35.25607],[128.42603,35.2552],[128.42663,35.25772],[128.42594,35.2626],[128.43044,35.26259],[128.43133,35.26385],[128.42905,35.26528],[128.42777,35.26931],[128.42831,35.27106],[128.4254,35.27402],[128.42461,35.27622],[128.42488,35.27864],[128.42304,35.27933],[128.41999,35.27943],[128.42029,35.2852],[128.4189,35.28743],[128.41775,35.29061],[128.41635,35.29745],[128.41614,35.29969],[128.41784,35.30057],[128.42089,35.30006],[128.42363,35.30206],[128.42765,35.30767],[128.4299,35.30816],[128.43132,35.30984],[128.43158,35.31261]]]},"properties":{"adm_nm":"경상남도 함안군 가야읍","adm_cd2":"4873025000","sgg":"48730","sido":"48","sidonm":"경상남도","sggnm":"함안군","adm_cd":"38520110"}},
{"type":"Feature","geometry":{"type":"Polygon","coordinates":[[[128.46616,35.22411],[128.46444,35.22562],[128.46344,35.22932],[128.45861,35.2313],[128.45365,35.23165],[128.45116,35.23324],[128.45044,35.23686],[128.45249,35.24195],[128.45259,35.24323],[128.45026,35.24641],[128.44551,35.24893],[128.44049,35.25466],[128.43922,35.25818],[128.44035,35.2606],[128.44325,35.26206],[128.44535,35.26425],[128.44519,35.26563],[128.44076,35.26519],[128.43498,35.26861],[128.4334,35.26996],[128.42831,35.27106],[128.42777,35.26931],[128.42905,35.26528],[128.43133,35.26385],[128.43044,35.26259],[128.42594,35.2626],[128.42663,35.25772],[128.42603,35.2552],[128.42149,35.25607],[128.41956,35.25702],[128.41714,35.2563],[128.41571,35.25495],[128.4143,35.25],[128.41369,35.24367],[128.41554,35.24215],[128.41501,35.23996],[128.41306,35.23965],[128.4066,35.24119],[128.40067,35.24175],[128.39747,35.23706],[128.39923,35.23443],[128.3949,35.23184],[128.39121,35.23149],[128.38661,35.22536],[128.38487,35.22207],[128.38926,35.21776],[128.39115,35.21712],[128.39013,35.21409],[128.38851,35.21152],[128.38686,35.21089],[128.38717,35.20864],[128.3893,35.20686],[128.39401,35.20526],[128.39669,35.20509],[128.39845,35.20565],[128.4008,35.20485],[128.40344,35.20209],[128.40558,35.19834],[128.4067,35.19985],[128.4123,35.20462],[128.41565,35.20596],[128.41714,35.20895],[128.42101,35.21077],[128.42427,35.21154],[128.42482,35.20882],[128.42622,35.20751],[128.43036,35.20819],[128.43282,35.20914],[128.43317,35.21127],[128.43519,35.21046],[128.43626,35.2083],[128.44847,35.21325],[128.45033,35.21651],[128.45986,35.22038],[128.46616,35.22411]]]},"properties":{"adm_nm":"경상남도 함안군 함안면","adm_cd2":"4873031000","sgg":"48730","sido":"48","sidonm":"경상남도","sggnm":"함안군","adm_cd":"38520310"}},
{"type":"Feature","geometry":{"type":"Polygon","coordinates":[[[128.36774,35.29727],[128.36499,35.29873],[128.36154,35.29796],[128.35919,35.29917],[128.35814,35.3007],[128.35294,35.30461],[128.35086,35.30527],[128.34479,35.3084],[128.34201,35.31053],[128.3328,35.30253],[128.32484,35.30428],[128.32216,35.304],[128.32088,35.30801],[128.31858,35.30976],[128.318,35.31455],[128.31855,35.31934],[128.31677,35.32294],[128.31551,35.32145],[128.31232,35.31916],[128.30586,35.31694],[128.29774,35.31477],[128.29505,35.31317],[128.29209,35.31017],[128.29055,35.30771],[128.289,35.30306],[128.28902,35.30109],[128.29071,35.2971],[128.30212,35.28359],[128.30154,35.28146],[128.29896,35.27983],[128.29489,35.27848],[128.28897,35.27784],[128.28581,35.27687],[128.28163,35.27468],[128.27946,35.27152],[128.27729,35.26456],[128.27424,35.25737],[128.27763,35.25666],[128.28202,35.25372],[128.28595,35.25173],[128.28908,35.25217],[128.29039,35.25331],[128.29351,35.25352],[128.29762,35.25084],[128.29899,35.24821],[128.29822,35.2469],[128.29453,35.24327],[128.29437,35.24107],[128.29927,35.23803],[128.3036,35.23745],[128.30723,35.23157],[128.3078,35.22916],[128.30577,35.22392],[128.30734,35.22168],[128.31483,35.22187],[128.31608,35.22268],[128.31827,35.22173],[128.32162,35.21812],[128.32244,35.21341],[128.32553,35.21143],[128.3274,35.20781],[128.32978,35.2067],[128.33252,35.20714],[128.33806,35.20864],[128.33993,35.20761],[128.34258,35.20759],[128.34663,35.20854],[128.34992,35.20983],[128.35251,35.20945],[128.3559,35.20754],[128.35866,35.20474],[128.36009,35.20117],[128.36436,35.19806],[128.36754,35.19413],[128.36948,35.19428],[128.37419,35.19338],[128.37681,35.19547],[128.3766,35.19831],[128.38023,35.20138],[128.38281,35.20203],[128.3871,35.20474],[128.3893,35.20686],[128.38717,35.20864],[128.38686,35.21089],[128.38851,35.21152],[128.39013,35.21409],[128.39115,35.21712],[128.38926,35.21776],[128.38487,35.22207],[128.38347,35.22288],[128.38227,35.22558],[128.38063,35.22738],[128.37866,35.22807],[128.37814,35.23393],[128.37556,35.2344],[128.37239,35.23624],[128.3707,35.24145],[128.37059,35.24436],[128.36675,35.2512],[128.36721,35.2534],[128.36675,35.25565],[128.36462,35.25815],[128.36471,35.26372],[128.36625,35.26424],[128.36635,35.26754],[128.36441,35.27037],[128.36383,35.27731],[128.36645,35.27872],[128.3686,35.28272],[128.36902,35.28635],[128.368,35.28703],[128.36661,35.28998],[128.37012,35.29418],[128.36882,35.29677],[128.36774,35.29727]]]},"properties":{"adm_nm":"경상남도 함안군 군북면","adm_cd2":"4873032000","sgg":"48730","sido":"48","sidonm":"경상남도","sggnm":"함안군","adm_cd":"38520320"}},
{"type":"Feature","geometry":{"type":"Polygon","coordinates":[[[128.39609,35.33611],[128.39402,35.33464],[128.38865,35.33424],[128.38032,35.33327],[128.37789,35.33323],[128.37408,35.3341],[128.37088,35.33552],[128.35716,35.33818],[128.35433,35.33928],[128.35025,35.34278],[128.34876,35.34519],[128.34586,35.35112],[128.34126,35.35719],[128.33846,35.35959],[128.33292,35.36147],[128.32579,35.36279],[128.31919,35.36265],[128.31707,35.36226],[128.31494,35.36103],[128.31402,35.35854],[128.31362,35.35555],[128.31205,35.3532],[128.31104,35.34727],[128.31187,35.33813],[128.3135,35.33508],[128.31597,35.33221],[128.31732,35.32909],[128.31762,35.32558],[128.31677,35.32294],[128.31855,35.31934],[128.318,35.31455],[128.31858,35.30976],[128.32088,35.30801],[128.32216,35.304],[128.32484,35.30428],[128.3328,35.30253],[128.34201,35.31053],[128.34479,35.3084],[128.35086,35.30527],[128.35294,35.30461],[128.35814,35.3007],[128.35919,35.29917],[128.36154,35.29796],[128.36499,35.29873],[128.36774,35.29727],[128.37044,35.30086],[128.37749,35.30388],[128.38284,35.30492],[128.38559,35.30279],[128.39566,35.30514],[128.39273,35.31412],[128.40301,35.3163],[128.40306,35.31724],[128.40072,35.31903],[128.40132,35.32056],[128.3996,35.32087],[128.39779,35.32455],[128.39857,35.32638],[128.4008,35.3267],[128.40111,35.32961],[128.3999,35.33279],[128.39755,35.33559],[128.39609,35.33611]]]},"properties":{"adm_nm":"경상남도 함안군 법수면","adm_cd2":"4873033000","sgg":"48730","sido":"48","sidonm":"경상남도","sggnm":"함안군","adm_cd":"38520330"}},
{"type":"Feature","geometry":{"type":"Polygon","coordinates":[[[128.43652,35.3924],[128.43161,35.39127],[128.42799,35.3884],[128.42418,35.38401],[128.42023,35.37874],[128.4209,35.37569],[128.42279,35.3728],[128.42631,35.36915],[128.42839,35.36627],[128.42734,35.36431],[128.42245,35.36243],[128.41746,35.36284],[128.41572,35.36219],[128.41425,35.35878],[128.4124,35.35859],[128.40674,35.36048],[128.40206,35.36083],[128.39197,35.36029],[128.3856,35.3592],[128.38272,35.35619],[128.38164,35.35306],[128.3825,35.35035],[128.38385,35.34884],[128.39428,35.34059],[128.39548,35.33871],[128.39609,35.33611],[128.39755,35.33559],[128.3999,35.33279],[128.40111,35.32961],[128.4008,35.3267],[128.39857,35.32638],[128.39779,35.32455],[128.3996,35.32087],[128.40132,35.32056],[128.40505,35.31815],[128.40829,35.31849],[128.41315,35.31597],[128.41628,35.31681],[128.41804,35.31625],[128.41971,35.31377],[128.4222,35.313],[128.42453,35.31434],[128.42891,35.31421],[128.43158,35.31261],[128.44145,35.31925],[128.44327,35.3198],[128.44701,35.31966],[128.45095,35.32101],[128.45087,35.3227],[128.45256,35.32506],[128.45737,35.32475],[128.45933,35.32328],[128.46457,35.31848],[128.46583,35.31622],[128.4648,35.3138],[128.4656,35.31354],[128.47141,35.3139],[128.47418,35.31636],[128.47447,35.32059],[128.4766,35.3215],[128.47971,35.32109],[128.48283,35.32155],[128.48488,35.32454],[128.48511,35.32611],[128.48373,35.33113],[128.48246,35.33292],[128.47891,35.33462],[128.47513,35.33517],[128.47373,35.33584],[128.4723,35.33924],[128.47434,35.34136],[128.47372,35.34212],[128.46767,35.34422],[128.46757,35.34552],[128.46476,35.35078],[128.46589,35.35282],[128.47017,35.35192],[128.47478,35.35477],[128.47499,35.36209],[128.46993,35.36662],[128.46845,35.37208],[128.4695,35.37548],[128.47134,35.37752],[128.46922,35.37859],[128.46804,35.38031],[128.46398,35.3807],[128.45483,35.38249],[128.44621,35.3852],[128.44187,35.38744],[128.43979,35.38902],[128.43652,35.3924]]]},"properties":{"adm_nm":"경상남도 함안군 대산면","adm_cd2":"4873034000","sgg":"48730","sido":"48","sidonm":"경상남도","sggnm":"함안군","adm_cd":"38520340"}},
{"type":"Feature","geometry":{"type":"Polygon","coordinates":[[[128.5187,35.39443],[128.51207,35.39815],[128.50895,35.39912],[128.50349,35.39859],[128.49796,35.39556],[128.48775,35.38805],[128.48109,35.38212],[128.47879,35.38117],[128.47206,35.38039],[128.46804,35.38031],[128.46922,35.37859],[128.47134,35.37752],[128.4695,35.37548],[128.46845,35.37208],[128.46993,35.36662],[128.47499,35.36209],[128.47478,35.35477],[128.47017,35.35192],[128.46589,35.35282],[128.46476,35.35078],[128.46757,35.34552],[128.46767,35.34422],[128.47372,35.34212],[128.47434,35.34136],[128.4723,35.33924],[128.47373,35.33584],[128.47513,35.33517],[128.47891,35.33462],[128.48246,35.33292],[128.48373,35.33113],[128.48511,35.32611],[128.48488,35.32454],[128.48283,35.32155],[128.47971,35.32109],[128.4766,35.3215],[128.47447,35.32059],[128.47418,35.31636],[128.47141,35.3139],[128.4656,35.31354],[128.4648,35.3138],[128.46332,35.3137],[128.4648,35.30905],[128.46582,35.30746],[128.46847,35.30831],[128.47732,35.30608],[128.47906,35.30593],[128.48066,35.30706],[128.48811,35.30531],[128.4933,35.30641],[128.49541,35.30604],[128.49779,35.30463],[128.50091,35.30522],[128.50317,35.30666],[128.50399,35.31073],[128.50217,35.31327],[128.50572,35.31483],[128.50906,35.31547],[128.51107,35.31422],[128.51378,35.315],[128.51365,35.31793],[128.51782,35.31776],[128.51935,35.31889],[128.52352,35.31845],[128.52528,35.31782],[128.53364,35.32129],[128.53456,35.32389],[128.53023,35.32354],[128.52805,35.32469],[128.52667,35.32918],[128.52546,35.33114],[128.52188,35.33141],[128.51965,35.33223],[128.5187,35.33575],[128.51588,35.33778],[128.5159,35.34003],[128.51354,35.34452],[128.51146,35.34422],[128.50761,35.34526],[128.50031,35.34901],[128.49802,35.35072],[128.49814,35.35306],[128.50158,35.35641],[128.50095,35.35855],[128.50197,35.36183],[128.50744,35.36912],[128.51122,35.37385],[128.5124,35.37458],[128.52278,35.37823],[128.52223,35.38193],[128.52472,35.3846],[128.52631,35.3849],[128.5316,35.38339],[128.5359,35.38076],[128.54076,35.37919],[128.54301,35.37902],[128.54568,35.3799],[128.54735,35.38119],[128.53844,35.38805],[128.53399,35.39018],[128.52887,35.39066],[128.5241,35.39176],[128.5187,35.39443]]]},"properties":{"adm_nm":"경상남도 함안군 칠서면","adm_cd2":"4873035000","sgg":"48730","sido":"48","sidonm":"경상남도","sggnm":"함안군","adm_cd":"38520350"}},
{"type":"Feature","geometry":{"type":"Polygon","coordinates":[[[128.54735,35.38119],[128.54568,35.3799],[128.54301,35.37902],[128.54076,35.37919],[128.5359,35.38076],[128.5316,35.38339],[128.52631,35.3849],[128.52472,35.3846],[128.52223,35.38193],[128.52278,35.37823],[128.5124,35.37458],[128.51122,35.37385],[128.50744,35.36912],[128.50197,35.36183],[128.50095,35.35855],[128.50158,35.35641],[128.49814,35.35306],[128.49802,35.35072],[128.50031,35.34901],[128.50761,35.34526],[128.51146,35.34422],[128.51354,35.34452],[128.5159,35.34003],[128.51588,35.33778],[128.5187,35.33575],[128.51965,35.33223],[128.52188,35.33141],[128.52546,35.33114],[128.52667,35.32918],[128.52805,35.32469],[128.53023,35.32354],[128.53456,35.32389],[128.53707,35.32586],[128.5434,35.32731],[128.54683,35.32654],[128.54999,35.32432],[128.55541,35.32521],[128.5603,35.32524],[128.56335,35.32586],[128.56673,35.32974],[128.56986,35.33416],[128.5695,35.3371],[128.56597,35.33889],[128.56458,35.34116],[128.56613,35.34259],[128.56534,35.345],[128.56272,35.34719],[128.56395,35.35008],[128.56014,35.35168],[128.55947,35.35275],[128.56253,35.35701],[128.56773,35.35734],[128.57153,35.3587],[128.57166,35.36187],[128.57332,35.36267],[128.57685,35.36595],[128.57781,35.36802],[128.57622,35.37277],[128.576,35.37606],[128.57698,35.37916],[128.56953,35.37865],[128.55914,35.3786],[128.55359,35.37891],[128.54959,35.38008],[128.54735,35.38119]]]},"properties":{"adm_nm":"경상남도 함안군 칠북면","adm_cd2":"4873036000","sgg":"48730","sido":"48","sidonm":"경상남도","sggnm":"함안군","adm_cd":"38520360"}},
{"type":"Feature","geometry":{"type":"Polygon","coordinates":[[[128.4648,35.3138],[128.46583,35.31622],[128.46457,35.31848],[128.45933,35.32328],[128.45737,35.32475],[128.45256,35.32506],[128.45087,35.3227],[128.45095,35.32101],[128.44701,35.31966],[128.44327,35.3198],[128.44145,35.31925],[128.43158,35.31261],[128.43132,35.30984],[128.4299,35.30816],[128.42765,35.30767],[128.42363,35.30206],[128.42089,35.30006],[128.41784,35.30057],[128.41614,35.29969],[128.41635,35.29745],[128.41775,35.29061],[128.4189,35.28743],[128.42029,35.2852],[128.41999,35.27943],[128.42304,35.27933],[128.42488,35.27864],[128.42461,35.27622],[128.4254,35.27402],[128.42831,35.27106],[128.4334,35.26996],[128.43498,35.26861],[128.44076,35.26519],[128.44519,35.26563],[128.44535,35.26425],[128.44325,35.26206],[128.44035,35.2606],[128.43922,35.25818],[128.44049,35.25466],[128.44551,35.24893],[128.45026,35.24641],[128.45259,35.24323],[128.45249,35.24195],[128.45044,35.23686],[128.45116,35.23324],[128.45365,35.23165],[128.45861,35.2313],[128.46344,35.22932],[128.46444,35.22562],[128.46616,35.22411],[128.46888,35.22284],[128.47421,35.22235],[128.47534,35.22475],[128.475,35.22716],[128.47507,35.2339],[128.47581,35.23773],[128.47438,35.24137],[128.47583,35.24779],[128.47869,35.25307],[128.48194,35.25564],[128.4852,35.2576],[128.48859,35.26359],[128.49098,35.26557],[128.49051,35.26996],[128.49081,35.27369],[128.4863,35.27749],[128.48214,35.27928],[128.47876,35.27972],[128.47634,35.27893],[128.4716,35.27978],[128.46289,35.28275],[128.46261,35.28399],[128.45937,35.28797],[128.45735,35.29098],[128.4574,35.29231],[128.46043,35.29659],[128.46392,35.30235],[128.46602,35.30463],[128.46582,35.30746],[128.4648,35.30905],[128.46332,35.3137],[128.4648,35.3138]]]},"properties":{"adm_nm":"경상남도 함안군 산인면","adm_cd2":"4873038000","sgg":"48730","sido":"48","sidonm":"경상남도","sggnm":"함안군","adm_cd":"38520380"}},
{"type":"Feature","geometry":{"type":"Polygon","coordinates":[[[128.47421,35.22235],[128.46888,35.22284],[128.46616,35.22411],[128.45986,35.22038],[128.45033,35.21651],[128.44847,35.21325],[128.43626,35.2083],[128.43519,35.21046],[128.43317,35.21127],[128.43282,35.20914],[128.43036,35.20819],[128.42622,35.20751],[128.42482,35.20882],[128.42427,35.21154],[128.42101,35.21077],[128.41714,35.20895],[128.41565,35.20596],[128.4123,35.20462],[128.4067,35.19985],[128.40558,35.19834],[128.40788,35.19236],[128.40519,35.19018],[128.40371,35.18602],[128.40365,35.18407],[128.40631,35.17934],[128.4099,35.17927],[128.41406,35.17505],[128.41644,35.17048],[128.41974,35.16919],[128.42629,35.16696],[128.42991,35.16425],[128.43429,35.16407],[128.43745,35.16518],[128.44387,35.16996],[128.44629,35.18027],[128.45016,35.1812],[128.45741,35.18379],[128.45802,35.18562],[128.46253,35.18691],[128.46518,35.18884],[128.46804,35.18849],[128.476,35.18876],[128.47897,35.18772],[128.48073,35.18932],[128.48383,35.19358],[128.48547,35.19657],[128.48831,35.19909],[128.48999,35.20206],[128.49039,35.20448],[128.49004,35.20702],[128.48424,35.21167],[128.47898,35.21258],[128.47843,35.2162],[128.47493,35.22089],[128.47421,35.22235]]]},"properties":{"adm_nm":"경상남도 함안군 여항면","adm_cd2":"4873039000","sgg":"48730","sido":"48","sidonm":"경상남도","sggnm":"함안군","adm_cd":"38520390"}},
{"type":"Feature","geometry":{"type":"Polygon","coordinates":[[[128.56335,35.32586],[128.5603,35.32524],[128.55541,35.32521],[128.54999,35.32432],[128.54683,35.32654],[128.5434,35.32731],[128.53707,35.32586],[128.53456,35.32389],[128.53364,35.32129],[128.52528,35.31782],[128.52352,35.31845],[128.51935,35.31889],[128.51782,35.31776],[128.51365,35.31793],[128.51378,35.315],[128.51107,35.31422],[128.50906,35.31547],[128.50572,35.31483],[128.50217,35.31327],[128.50399,35.31073],[128.50317,35.30666],[128.50091,35.30522],[128.49779,35.30463],[128.49541,35.30604],[128.4933,35.30641],[128.48811,35.30531],[128.48066,35.30706],[128.47906,35.30593],[128.47732,35.30608],[128.46847,35.30831],[128.46582,35.30746],[128.46602,35.30463],[128.46392,35.30235],[128.46043,35.29659],[128.4574,35.29231],[128.45735,35.29098],[128.45937,35.28797],[128.46261,35.28399],[128.46289,35.28275],[128.4716,35.27978],[128.47634,35.27893],[128.47876,35.27972],[128.48214,35.27928],[128.4863,35.27749],[128.49081,35.27369],[128.4974,35.27564],[128.50129,35.27385],[128.50327,35.2734],[128.5061,35.27375],[128.50747,35.27307],[128.50871,35.27055],[128.51105,35.26899],[128.51557,35.26851],[128.51869,35.26867],[128.5217,35.26997],[128.52432,35.27023],[128.52494,35.26906],[128.52791,35.26822],[128.52985,35.26863],[128.53242,35.26699],[128.53487,35.26679],[128.53666,35.27081],[128.5385,35.27273],[128.54515,35.27067],[128.55472,35.27569],[128.5569,35.27731],[128.56291,35.2762],[128.57097,35.27314],[128.57456,35.27154],[128.57819,35.26913],[128.58589,35.2715],[128.59124,35.27159],[128.5901,35.276],[128.58917,35.27678],[128.58583,35.27735],[128.5832,35.27864],[128.5816,35.28178],[128.5823,35.28407],[128.58106,35.28751],[128.57694,35.29113],[128.57355,35.29585],[128.5723,35.30069],[128.57625,35.30443],[128.57861,35.30606],[128.58119,35.30649],[128.58267,35.30863],[128.58132,35.30992],[128.57661,35.31273],[128.57574,35.31265],[128.57219,35.31553],[128.57241,35.31977],[128.57096,35.32152],[128.56836,35.32273],[128.56653,35.32515],[128.56335,35.32586]]]},"properties":{"adm_nm":"경상남도 함안군 칠원읍","adm_cd2":"4873025300","sgg":"48730","sido":"48","sidonm":"경상남도","sggnm":"함안군","adm_cd":"38520120"}},
{"type":"Feature","geometry":{"type":"Polygon","coordinates":[[[128.57714,35.53704],[128.56803,35.53868],[128.56427,35.53761],[128.55981,35.53698],[128.55593,35.5383],[128.55386,35.53999],[128.55444,35.54202],[128.55086,35.54721],[128.55103,35.54996],[128.54732,35.5497],[128.5447,35.54791],[128.53834,35.54825],[128.53529,35.54699],[128.53203,35.54677],[128.5291,35.54871],[128.52906,35.55126],[128.5273,35.55477],[128.52278,35.55651],[128.51792,35.55693],[128.51261,35.55688],[128.51122,35.55799],[128.50962,35.56168],[128.50966,35.56322],[128.50725,35.56655],[128.50477,35.5662],[128.50271,35.56497],[128.49878,35.56508],[128.49701,35.56218],[128.49406,35.56023],[128.49025,35.55973],[128.48856,35.56061],[128.48564,35.56329],[128.48348,35.5641],[128.48206,35.56373],[128.48153,35.56089],[128.48274,35.55344],[128.48307,35.54917],[128.48708,35.54471],[128.48218,35.54163],[128.47507,35.54168],[128.47157,35.54296],[128.46936,35.54221],[128.46845,35.53997],[128.46972,35.53746],[128.46902,35.53483],[128.47214,35.53392],[128.47331,35.53593],[128.47968,35.53458],[128.47878,35.53331],[128.47518,35.5327],[128.47167,35.52988],[128.47005,35.52804],[128.46879,35.52501],[128.46385,35.52159],[128.45966,35.51705],[128.45554,35.51508],[128.44562,35.5146],[128.44124,35.51556],[128.43833,35.51457],[128.43408,35.51613],[128.43075,35.51563],[128.42804,35.51434],[128.42959,35.51227],[128.43395,35.51105],[128.43787,35.5115],[128.43955,35.51078],[128.44056,35.5091],[128.44317,35.50792],[128.44779,35.50728],[128.4514,35.51094],[128.45336,35.51146],[128.45574,35.51041],[128.45675,35.50921],[128.45722,35.50404],[128.45788,35.50136],[128.45458,35.4973],[128.45315,35.49606],[128.45375,35.49347],[128.45643,35.49001],[128.45738,35.48962],[128.46364,35.49099],[128.46612,35.49187],[128.46816,35.49646],[128.47499,35.49785],[128.47892,35.49745],[128.48277,35.50205],[128.48289,35.50433],[128.49639,35.50827],[128.49977,35.50792],[128.50178,35.50718],[128.50322,35.50551],[128.5067,35.50405],[128.50912,35.50413],[128.51229,35.50556],[128.51454,35.50596],[128.52096,35.50849],[128.52851,35.50961],[128.53412,35.5073],[128.53615,35.50726],[128.54087,35.50544],[128.54433,35.50055],[128.5488,35.49313],[128.55422,35.48848],[128.55994,35.48624],[128.57165,35.4857],[128.57332,35.48857],[128.57154,35.49021],[128.57107,35.49229],[128.57467,35.5019],[128.57756,35.50574],[128.5803,35.5055],[128.58221,35.50453],[128.58585,35.50506],[128.58671,35.5074],[128.58916,35.50936],[128.59049,35.51387],[128.59183,35.51498],[128.59158,35.5169],[128.5849,35.52088],[128.58241,35.52427],[128.58229,35.52699],[128.58373,35.52923],[128.58193,35.53492],[128.57946,35.5367],[128.57714,35.53704]]]},"properties":{"adm_nm":"경상남도 창녕군 창녕읍","adm_cd2":"4874025000","sgg":"48740","sido":"48","sidonm":"경상남도","sggnm":"창녕군","adm_cd":"38530110"}},
{"type":"Feature","geometry":{"type":"Polygon","coordinates":[[[128.44036,35.47484],[128.43763,35.47534],[128.43623,35.47728],[128.43747,35.47882],[128.43863,35.48438],[128.43781,35.48564],[128.43424,35.48661],[128.4331,35.48546],[128.42749,35.48195],[128.42613,35.4794],[128.42386,35.47959],[128.42131,35.47621],[128.41494,35.47099],[128.41257,35.46938],[128.40831,35.46725],[128.39163,35.46111],[128.38032,35.45882],[128.37722,35.45721],[128.37607,35.45518],[128.37527,35.45206],[128.37441,35.4473],[128.37448,35.44512],[128.37622,35.44038],[128.37705,35.43903],[128.38516,35.42806],[128.38781,35.42598],[128.39192,35.42361],[128.39618,35.42176],[128.40827,35.41888],[128.41781,35.41823],[128.42279,35.41686],[128.4263,35.41364],[128.42933,35.4083],[128.43121,35.40325],[128.43652,35.3924],[128.43979,35.38902],[128.44187,35.38744],[128.44621,35.3852],[128.45483,35.38249],[128.46398,35.3807],[128.46804,35.38031],[128.47206,35.38039],[128.47879,35.38117],[128.48109,35.38212],[128.48775,35.38805],[128.49796,35.39556],[128.49386,35.39974],[128.48974,35.4025],[128.48834,35.40291],[128.4863,35.39981],[128.48291,35.40007],[128.48262,35.40382],[128.47898,35.4057],[128.47783,35.40821],[128.48123,35.41322],[128.47732,35.41453],[128.47581,35.41358],[128.47401,35.41412],[128.47618,35.41971],[128.47765,35.42083],[128.48079,35.4209],[128.48181,35.42152],[128.48093,35.42475],[128.47961,35.42636],[128.47693,35.42783],[128.47279,35.42595],[128.47063,35.42626],[128.46831,35.42794],[128.4681,35.42985],[128.46692,35.43064],[128.46178,35.43141],[128.45913,35.43397],[128.45549,35.43563],[128.45302,35.43382],[128.45332,35.43063],[128.45141,35.42956],[128.44985,35.43019],[128.44796,35.43284],[128.44377,35.4352],[128.43787,35.44118],[128.43648,35.44324],[128.437,35.44527],[128.44053,35.4479],[128.44081,35.44926],[128.43803,35.45276],[128.43933,35.45773],[128.44183,35.46029],[128.44177,35.46146],[128.43903,35.46601],[128.44054,35.4709],[128.44036,35.47484]]]},"properties":{"adm_nm":"경상남도 창녕군 남지읍","adm_cd2":"4874025300","sgg":"48740","sido":"48","sidonm":"경상남도","sggnm":"창녕군","adm_cd":"38530120"}},
{"type":"Feature","geometry":{"type":"Polygon","coordinates":[[[128.5853,35.57978],[128.58003,35.5805],[128.57673,35.5789],[128.5708,35.58119],[128.56707,35.58141],[128.56207,35.58057],[128.56044,35.57947],[128.55574,35.58035],[128.55167,35.58351],[128.54829,35.58733],[128.54669,35.58972],[128.54112,35.5915],[128.53442,35.59501],[128.52675,35.59595],[128.52286,35.59328],[128.51789,35.59537],[128.51499,35.59607],[128.51367,35.59739],[128.51419,35.59964],[128.50822,35.60336],[128.50633,35.60552],[128.50368,35.60722],[128.50074,35.60678],[128.49314,35.60736],[128.49034,35.60914],[128.48685,35.6081],[128.48552,35.60758],[128.48364,35.60486],[128.48659,35.59927],[128.48944,35.5989],[128.49262,35.5965],[128.49295,35.59465],[128.49199,35.59016],[128.48874,35.58952],[128.48518,35.58796],[128.48501,35.58525],[128.48024,35.57871],[128.47697,35.57514],[128.47378,35.57268],[128.47399,35.57136],[128.47684,35.56913],[128.47965,35.56969],[128.4818,35.56921],[128.48498,35.56588],[128.48348,35.5641],[128.48564,35.56329],[128.48856,35.56061],[128.49025,35.55973],[128.49406,35.56023],[128.49701,35.56218],[128.49878,35.56508],[128.50271,35.56497],[128.50477,35.5662],[128.50725,35.56655],[128.50966,35.56322],[128.50962,35.56168],[128.51122,35.55799],[128.51261,35.55688],[128.51792,35.55693],[128.52278,35.55651],[128.5273,35.55477],[128.52906,35.55126],[128.5291,35.54871],[128.53203,35.54677],[128.53529,35.54699],[128.53834,35.54825],[128.5447,35.54791],[128.54732,35.5497],[128.55103,35.54996],[128.55086,35.54721],[128.55444,35.54202],[128.55386,35.53999],[128.55593,35.5383],[128.55981,35.53698],[128.56427,35.53761],[128.56803,35.53868],[128.57714,35.53704],[128.58019,35.53885],[128.58589,35.53891],[128.5887,35.53741],[128.59123,35.53678],[128.59374,35.54049],[128.59287,35.54237],[128.59066,35.54367],[128.58753,35.54772],[128.58774,35.54923],[128.58561,35.55386],[128.58649,35.55632],[128.5888,35.55741],[128.5896,35.56107],[128.58853,35.56386],[128.584,35.56701],[128.58639,35.57315],[128.5853,35.57978]]]},"properties":{"adm_nm":"경상남도 창녕군 고암면","adm_cd2":"4874031000","sgg":"48740","sido":"48","sidonm":"경상남도","sggnm":"창녕군","adm_cd":"38530310"}},
{"type":"Feature","geometry":{"type":"Polygon","coordinates":[[[128.59344,35.58433],[128.58482,35.5862],[128.57426,35.59221],[128.57365,35.59538],[128.57228,35.59749],[128.5709,35.59767],[128.56757,35.59953],[128.56747,35.60122],[128.56455,35.6025],[128.55969,35.60325],[128.5588,35.60793],[128.55918,35.60982],[128.55805,35.61494],[128.55624,35.61671],[128.55048,35.61701],[128.5475,35.61909],[128.54158,35.62092],[128.5365,35.62365],[128.5358,35.62733],[128.53822,35.63197],[128.5375,35.63626],[128.53647,35.63932],[128.53501,35.64149],[128.53472,35.6438],[128.53765,35.65073],[128.53834,35.65489],[128.53688,35.66096],[128.5355,35.662],[128.53146,35.66217],[128.53072,35.66298],[128.53086,35.6654],[128.52638,35.6742],[128.52674,35.67705],[128.52846,35.67954],[128.52641,35.68238],[128.52284,35.68153],[128.5191,35.67963],[128.51705,35.67646],[128.51582,35.67574],[128.50913,35.67458],[128.50735,35.67207],[128.50926,35.66895],[128.5082,35.66356],[128.50796,35.66],[128.50717,35.6554],[128.50681,35.65015],[128.50828,35.64925],[128.51061,35.64657],[128.50989,35.64301],[128.50621,35.63959],[128.50286,35.63869],[128.4978,35.63899],[128.49488,35.63784],[128.48624,35.63558],[128.48286,35.63574],[128.48062,35.63954],[128.47765,35.64043],[128.47272,35.63827],[128.46981,35.63634],[128.46694,35.63638],[128.46344,35.63813],[128.46113,35.64061],[128.45731,35.63963],[128.45542,35.63748],[128.45428,35.63723],[128.45018,35.63803],[128.4524,35.63518],[128.45743,35.63309],[128.45726,35.63105],[128.45568,35.62904],[128.45588,35.62524],[128.45716,35.62173],[128.45843,35.61983],[128.46041,35.61926],[128.46417,35.61942],[128.4694,35.61666],[128.47136,35.61872],[128.47637,35.61962],[128.48069,35.61817],[128.48364,35.6189],[128.48572,35.61688],[128.48394,35.61438],[128.48685,35.6081],[128.49034,35.60914],[128.49314,35.60736],[128.50074,35.60678],[128.50368,35.60722],[128.50633,35.60552],[128.50822,35.60336],[128.51419,35.59964],[128.51367,35.59739],[128.51499,35.59607],[128.51789,35.59537],[128.52286,35.59328],[128.52675,35.59595],[128.53442,35.59501],[128.54112,35.5915],[128.54669,35.58972],[128.54829,35.58733],[128.55167,35.58351],[128.55574,35.58035],[128.56044,35.57947],[128.56207,35.58057],[128.56707,35.58141],[128.5708,35.58119],[128.57673,35.5789],[128.58003,35.5805],[128.5853,35.57978],[128.58861,35.5823],[128.59344,35.58433]]]},"properties":{"adm_nm":"경상남도 창녕군 성산면","adm_cd2":"4874032000","sgg":"48740","sido":"48","sidonm":"경상남도","sggnm":"창녕군","adm_cd":"38530320"}},
{"type":"Feature","geometry":{"type":"Polygon","coordinates":[[[128.45018,35.63803],[128.4462,35.63819],[128.43794,35.6313],[128.43191,35.62358],[128.42857,35.62292],[128.4266,35.62354],[128.42408,35.62232],[128.42352,35.62046],[128.41958,35.62037],[128.41763,35.62175],[128.41503,35.6202],[128.41526,35.61889],[128.41303,35.61661],[128.411,35.61534],[128.40653,35.61468],[128.40493,35.61573],[128.39939,35.61592],[128.39565,35.61426],[128.39609,35.60692],[128.39884,35.60019],[128.39821,35.59688],[128.40049,35.59138],[128.40163,35.59069],[128.40332,35.59223],[128.40465,35.59544],[128.40567,35.59654],[128.40823,35.59691],[128.41091,35.59921],[128.4128,35.59974],[128.41606,35.59625],[128.41853,35.59598],[128.42003,35.59432],[128.42047,35.59054],[128.42229,35.58644],[128.42198,35.58485],[128.41654,35.58213],[128.42095,35.57813],[128.42273,35.57575],[128.42268,35.57474],[128.41966,35.5745],[128.41499,35.57047],[128.41398,35.56717],[128.41815,35.56455],[128.41806,35.5621],[128.41695,35.55946],[128.42024,35.55942],[128.42574,35.55832],[128.42887,35.55475],[128.43224,35.55312],[128.43459,35.55304],[128.43659,35.55447],[128.43944,35.55606],[128.44399,35.5559],[128.44987,35.55716],[128.45638,35.55971],[128.45839,35.56309],[128.46079,35.56373],[128.46451,35.56599],[128.46954,35.56717],[128.47378,35.57268],[128.47697,35.57514],[128.48024,35.57871],[128.48501,35.58525],[128.48518,35.58796],[128.48874,35.58952],[128.49199,35.59016],[128.49295,35.59465],[128.49262,35.5965],[128.48944,35.5989],[128.48659,35.59927],[128.48364,35.60486],[128.48552,35.60758],[128.48685,35.6081],[128.48394,35.61438],[128.48572,35.61688],[128.48364,35.6189],[128.48069,35.61817],[128.47637,35.61962],[128.47136,35.61872],[128.4694,35.61666],[128.46417,35.61942],[128.46041,35.61926],[128.45843,35.61983],[128.45716,35.62173],[128.45588,35.62524],[128.45568,35.62904],[128.45726,35.63105],[128.45743,35.63309],[128.4524,35.63518],[128.45018,35.63803]]]},"properties":{"adm_nm":"경상남도 창녕군 대합면","adm_cd2":"4874033000","sgg":"48740","sido":"48","sidonm":"경상남도","sggnm":"창녕군","adm_cd":"38530330"}},
{"type":"Feature","geometry":{"type":"Polygon","coordinates":[[[128.41695,35.55946],[128.41806,35.5621],[128.41815,35.56455],[128.41398,35.56717],[128.41499,35.57047],[128.41966,35.5745],[128.42268,35.57474],[128.42273,35.57575],[128.42095,35.57813],[128.41654,35.58213],[128.42198,35.58485],[128.42229,35.58644],[128.42047,35.59054],[128.42003,35.59432],[128.41853,35.59598],[128.41606,35.59625],[128.4128,35.59974],[128.41091,35.59921],[128.40823,35.59691],[128.40567,35.59654],[128.40465,35.59544],[128.40332,35.59223],[128.40163,35.59069],[128.40049,35.59138],[128.39821,35.59688],[128.39884,35.60019],[128.39609,35.60692],[128.39565,35.61426],[128.38781,35.61015],[128.38472,35.60998],[128.38167,35.60677],[128.37727,35.60692],[128.3729,35.60843],[128.37077,35.61116],[128.36235,35.61189],[128.35913,35.61177],[128.35383,35.61002],[128.35189,35.60675],[128.3523,35.60303],[128.3552,35.59092],[128.35627,35.58882],[128.35842,35.5869],[128.35978,35.58391],[128.36173,35.57801],[128.3617,35.57668],[128.35999,35.56764],[128.35624,35.56235],[128.35029,35.55303],[128.34915,35.5502],[128.34882,35.54597],[128.3502,35.53863],[128.35276,35.53493],[128.35738,35.53039],[128.36304,35.52543],[128.37224,35.51896],[128.37392,35.51835],[128.37495,35.51923],[128.37871,35.52024],[128.37834,35.52212],[128.37621,35.52572],[128.37671,35.52683],[128.37961,35.5294],[128.38226,35.5297],[128.38935,35.52846],[128.39263,35.5272],[128.39564,35.52739],[128.39757,35.53127],[128.40286,35.53505],[128.4046,35.53725],[128.40313,35.5379],[128.40078,35.54119],[128.40089,35.5426],[128.40412,35.54639],[128.40296,35.55151],[128.40313,35.55341],[128.40599,35.5534],[128.40662,35.55227],[128.41176,35.5548],[128.41695,35.55946]]]},"properties":{"adm_nm":"경상남도 창녕군 이방면","adm_cd2":"4874034000","sgg":"48740","sido":"48","sidonm":"경상남도","sggnm":"창녕군","adm_cd":"38530340"}},
{"type":"Feature","geometry":{"type":"Polygon","coordinates":[[[128.43659,35.55447],[128.43459,35.55304],[128.43224,35.55312],[128.42887,35.55475],[128.42574,35.55832],[128.42024,35.55942],[128.41695,35.55946],[128.41176,35.5548],[128.40662,35.55227],[128.40599,35.5534],[128.40313,35.55341],[128.40296,35.55151],[128.40412,35.54639],[128.40089,35.5426],[128.40078,35.54119],[128.40313,35.5379],[128.4046,35.53725],[128.40286,35.53505],[128.39757,35.53127],[128.39564,35.52739],[128.39263,35.5272],[128.38935,35.52846],[128.38226,35.5297],[128.37961,35.5294],[128.37671,35.52683],[128.37621,35.52572],[128.37834,35.52212],[128.37871,35.52024],[128.37495,35.51923],[128.37392,35.51835],[128.3793,35.51429],[128.38295,35.51239],[128.39779,35.50569],[128.40227,35.50288],[128.41043,35.49918],[128.41652,35.49704],[128.42119,35.49403],[128.42382,35.49191],[128.42591,35.48837],[128.42636,35.4865],[128.42595,35.48332],[128.42386,35.47959],[128.42613,35.4794],[128.42749,35.48195],[128.4331,35.48546],[128.43424,35.48661],[128.43781,35.48564],[128.43863,35.48438],[128.43747,35.47882],[128.43623,35.47728],[128.43763,35.47534],[128.44036,35.47484],[128.44564,35.47539],[128.44701,35.47634],[128.44843,35.47936],[128.44999,35.48088],[128.45439,35.48268],[128.45566,35.48278],[128.45738,35.48962],[128.45643,35.49001],[128.45375,35.49347],[128.45315,35.49606],[128.45458,35.4973],[128.45788,35.50136],[128.45722,35.50404],[128.45675,35.50921],[128.45574,35.51041],[128.45336,35.51146],[128.4514,35.51094],[128.44779,35.50728],[128.44317,35.50792],[128.44056,35.5091],[128.43955,35.51078],[128.43787,35.5115],[128.43395,35.51105],[128.42959,35.51227],[128.42804,35.51434],[128.43075,35.51563],[128.43408,35.51613],[128.43833,35.51457],[128.44124,35.51556],[128.44002,35.51685],[128.43842,35.51657],[128.4355,35.51782],[128.43933,35.52147],[128.44195,35.52276],[128.4407,35.52559],[128.43705,35.52915],[128.43603,35.53219],[128.43338,35.53763],[128.43317,35.53893],[128.43841,35.54281],[128.43968,35.54503],[128.43659,35.55447]]]},"properties":{"adm_nm":"경상남도 창녕군 유어면","adm_cd2":"4874035000","sgg":"48740","sido":"48","sidonm":"경상남도","sggnm":"창녕군","adm_cd":"38530350"}},
{"type":"Feature","geometry":{"type":"Polygon","coordinates":[[[128.48348,35.5641],[128.48498,35.56588],[128.4818,35.56921],[128.47965,35.56969],[128.47684,35.56913],[128.47399,35.57136],[128.47378,35.57268],[128.46954,35.56717],[128.46451,35.56599],[128.46079,35.56373],[128.45839,35.56309],[128.45638,35.55971],[128.44987,35.55716],[128.44399,35.5559],[128.43944,35.55606],[128.43659,35.55447],[128.43968,35.54503],[128.43841,35.54281],[128.43317,35.53893],[128.43338,35.53763],[128.43603,35.53219],[128.43705,35.52915],[128.4407,35.52559],[128.44195,35.52276],[128.43933,35.52147],[128.4355,35.51782],[128.43842,35.51657],[128.44002,35.51685],[128.44124,35.51556],[128.44562,35.5146],[128.45554,35.51508],[128.45966,35.51705],[128.46385,35.52159],[128.46879,35.52501],[128.47005,35.52804],[128.47167,35.52988],[128.47518,35.5327],[128.47878,35.53331],[128.47968,35.53458],[128.47331,35.53593],[128.47214,35.53392],[128.46902,35.53483],[128.46972,35.53746],[128.46845,35.53997],[128.46936,35.54221],[128.47157,35.54296],[128.47507,35.54168],[128.48218,35.54163],[128.48708,35.54471],[128.48307,35.54917],[128.48274,35.55344],[128.48153,35.56089],[128.48206,35.56373],[128.48348,35.5641]]]},"properties":{"adm_nm":"경상남도 창녕군 대지면","adm_cd2":"4874036000","sgg":"48740","sido":"48","sidonm":"경상남도","sggnm":"창녕군","adm_cd":"38530360"}},
{"type":"Feature","geometry":{"type":"Polygon","coordinates":[[[128.57165,35.4857],[128.55994,35.48624],[128.55422,35.48848],[128.5488,35.49313],[128.54433,35.50055],[128.54087,35.50544],[128.53615,35.50726],[128.53412,35.5073],[128.53299,35.50651],[128.52898,35.5059],[128.52644,35.50434],[128.51106,35.50294],[128.5091,35.50127],[128.50433,35.49949],[128.50439,35.49756],[128.50042,35.49307],[128.49934,35.4911],[128.49715,35.48953],[128.49028,35.48363],[128.48853,35.481],[128.48417,35.47951],[128.48172,35.47714],[128.47915,35.47211],[128.47815,35.46931],[128.47861,35.46644],[128.47968,35.46353],[128.48102,35.46298],[128.48524,35.46274],[128.48744,35.46481],[128.4915,35.46436],[128.49494,35.46184],[128.4949,35.46117],[128.49062,35.45545],[128.48775,35.45496],[128.4859,35.4522],[128.48503,35.44688],[128.48374,35.44564],[128.48135,35.44475],[128.47862,35.44273],[128.4748,35.43836],[128.47447,35.43682],[128.47584,35.43532],[128.48281,35.43824],[128.4932,35.4411],[128.49841,35.44225],[128.49875,35.44378],[128.49774,35.44561],[128.49959,35.44641],[128.50716,35.44823],[128.50943,35.44811],[128.51256,35.44686],[128.51691,35.45172],[128.5192,35.4557],[128.5168,35.46049],[128.51836,35.46456],[128.52084,35.46453],[128.52524,35.46818],[128.53457,35.47253],[128.53689,35.47211],[128.54415,35.47396],[128.54662,35.47647],[128.54559,35.47894],[128.547,35.48052],[128.55432,35.48027],[128.5596,35.47936],[128.56523,35.48165],[128.56717,35.48119],[128.56914,35.47944],[128.57276,35.47805],[128.57324,35.4792],[128.57165,35.4857]]]},"properties":{"adm_nm":"경상남도 창녕군 계성면","adm_cd2":"4874037000","sgg":"48740","sido":"48","sidonm":"경상남도","sggnm":"창녕군","adm_cd":"38530370"}},
{"type":"Feature","geometry":{"type":"Polygon","coordinates":[[[128.57276,35.47805],[128.56914,35.47944],[128.56717,35.48119],[128.56523,35.48165],[128.5596,35.47936],[128.55432,35.48027],[128.547,35.48052],[128.54559,35.47894],[128.54662,35.47647],[128.54415,35.47396],[128.53689,35.47211],[128.53457,35.47253],[128.52524,35.46818],[128.52084,35.46453],[128.51836,35.46456],[128.5168,35.46049],[128.5192,35.4557],[128.51691,35.45172],[128.51256,35.44686],[128.50943,35.44811],[128.50716,35.44823],[128.49959,35.44641],[128.49774,35.44561],[128.49875,35.44378],[128.49841,35.44225],[128.4932,35.4411],[128.48281,35.43824],[128.47584,35.43532],[128.47414,35.43341],[128.47205,35.42998],[128.47063,35.42626],[128.47279,35.42595],[128.47693,35.42783],[128.47961,35.42636],[128.48093,35.42475],[128.48181,35.42152],[128.48079,35.4209],[128.47765,35.42083],[128.47618,35.41971],[128.47401,35.41412],[128.47581,35.41358],[128.47732,35.41453],[128.48123,35.41322],[128.47783,35.40821],[128.47898,35.4057],[128.48262,35.40382],[128.48291,35.40007],[128.4863,35.39981],[128.48834,35.40291],[128.48974,35.4025],[128.4914,35.40305],[128.49171,35.405],[128.49584,35.40535],[128.49352,35.40848],[128.49557,35.41204],[128.49882,35.41195],[128.50228,35.41517],[128.50547,35.42273],[128.50589,35.42575],[128.50534,35.42791],[128.50983,35.42837],[128.5117,35.42944],[128.51224,35.43253],[128.50995,35.43413],[128.50905,35.43724],[128.51064,35.44092],[128.51374,35.44126],[128.51709,35.43882],[128.52243,35.4427],[128.52433,35.44295],[128.52769,35.4412],[128.52973,35.44248],[128.53087,35.43974],[128.53043,35.43818],[128.53161,35.43347],[128.53946,35.43451],[128.54421,35.4407],[128.54349,35.44312],[128.54712,35.44812],[128.54791,35.45196],[128.5526,35.45291],[128.55909,35.45511],[128.5631,35.45284],[128.56905,35.4551],[128.57404,35.45557],[128.5781,35.45911],[128.57722,35.46031],[128.57819,35.46379],[128.57935,35.46599],[128.57731,35.47035],[128.5737,35.47231],[128.57276,35.47805]]]},"properties":{"adm_nm":"경상남도 창녕군 영산면","adm_cd2":"4874038000","sgg":"48740","sido":"48","sidonm":"경상남도","sggnm":"창녕군","adm_cd":"38530380"}},
{"type":"Feature","geometry":{"type":"Polygon","coordinates":[[[128.53412,35.5073],[128.52851,35.50961],[128.52096,35.50849],[128.51454,35.50596],[128.51229,35.50556],[128.50912,35.50413],[128.5067,35.50405],[128.50322,35.50551],[128.50178,35.50718],[128.49977,35.50792],[128.49639,35.50827],[128.48289,35.50433],[128.48277,35.50205],[128.47892,35.49745],[128.47499,35.49785],[128.46816,35.49646],[128.46612,35.49187],[128.46364,35.49099],[128.45738,35.48962],[128.45566,35.48278],[128.45439,35.48268],[128.44999,35.48088],[128.44843,35.47936],[128.44701,35.47634],[128.44564,35.47539],[128.44036,35.47484],[128.44054,35.4709],[128.43903,35.46601],[128.44177,35.46146],[128.44183,35.46029],[128.43933,35.45773],[128.43803,35.45276],[128.44081,35.44926],[128.44053,35.4479],[128.437,35.44527],[128.43648,35.44324],[128.43787,35.44118],[128.44377,35.4352],[128.44796,35.43284],[128.44985,35.43019],[128.45141,35.42956],[128.45332,35.43063],[128.45302,35.43382],[128.45549,35.43563],[128.45913,35.43397],[128.46178,35.43141],[128.46692,35.43064],[128.4681,35.42985],[128.46831,35.42794],[128.47063,35.42626],[128.47205,35.42998],[128.47414,35.43341],[128.47584,35.43532],[128.47447,35.43682],[128.4748,35.43836],[128.47862,35.44273],[128.48135,35.44475],[128.48374,35.44564],[128.48503,35.44688],[128.4859,35.4522],[128.48775,35.45496],[128.49062,35.45545],[128.4949,35.46117],[128.49494,35.46184],[128.4915,35.46436],[128.48744,35.46481],[128.48524,35.46274],[128.48102,35.46298],[128.47968,35.46353],[128.47861,35.46644],[128.47815,35.46931],[128.47915,35.47211],[128.48172,35.47714],[128.48417,35.47951],[128.48853,35.481],[128.49028,35.48363],[128.49715,35.48953],[128.49934,35.4911],[128.50042,35.49307],[128.50439,35.49756],[128.50433,35.49949],[128.5091,35.50127],[128.51106,35.50294],[128.52644,35.50434],[128.52898,35.5059],[128.53299,35.50651],[128.53412,35.5073]]]},"properties":{"adm_nm":"경상남도 창녕군 장마면","adm_cd2":"4874039000","sgg":"48740","sido":"48","sidonm":"경상남도","sggnm":"창녕군","adm_cd":"38530390"}},
{"type":"Feature","geometry":{"type":"Polygon","coordinates":[[[128.57404,35.45557],[128.56905,35.4551],[128.5631,35.45284],[128.55909,35.45511],[128.5526,35.45291],[128.54791,35.45196],[128.54712,35.44812],[128.54349,35.44312],[128.54421,35.4407],[128.53946,35.43451],[128.53161,35.43347],[128.53043,35.43818],[128.53087,35.43974],[128.52973,35.44248],[128.52769,35.4412],[128.52433,35.44295],[128.52243,35.4427],[128.51709,35.43882],[128.51374,35.44126],[128.51064,35.44092],[128.50905,35.43724],[128.50995,35.43413],[128.51224,35.43253],[128.5117,35.42944],[128.50983,35.42837],[128.50534,35.42791],[128.50589,35.42575],[128.50547,35.42273],[128.50228,35.41517],[128.49882,35.41195],[128.49557,35.41204],[128.49352,35.40848],[128.49584,35.40535],[128.49171,35.405],[128.4914,35.40305],[128.48974,35.4025],[128.49386,35.39974],[128.49796,35.39556],[128.50349,35.39859],[128.50895,35.39912],[128.51207,35.39815],[128.5187,35.39443],[128.5204,35.39605],[128.52302,35.39557],[128.52485,35.39598],[128.53241,35.4005],[128.53535,35.40337],[128.53682,35.40657],[128.53924,35.40631],[128.54217,35.40494],[128.54742,35.4064],[128.54876,35.40812],[128.55418,35.40931],[128.55516,35.41215],[128.55427,35.41543],[128.55486,35.41856],[128.55686,35.42224],[128.56308,35.42755],[128.56427,35.43043],[128.56409,35.43428],[128.56459,35.43661],[128.56663,35.4389],[128.5687,35.43964],[128.57256,35.43946],[128.57141,35.44616],[128.5735,35.4493],[128.57426,35.45279],[128.57404,35.45557]]]},"properties":{"adm_nm":"경상남도 창녕군 도천면","adm_cd2":"4874040000","sgg":"48740","sido":"48","sidonm":"경상남도","sggnm":"창녕군","adm_cd":"38530400"}},
{"type":"Feature","geometry":{"type":"Polygon","coordinates":[[[128.57256,35.43946],[128.5687,35.43964],[128.56663,35.4389],[128.56459,35.43661],[128.56409,35.43428],[128.56427,35.43043],[128.56308,35.42755],[128.55686,35.42224],[128.55486,35.41856],[128.55427,35.41543],[128.55516,35.41215],[128.55418,35.40931],[128.54876,35.40812],[128.54742,35.4064],[128.54217,35.40494],[128.53924,35.40631],[128.53682,35.40657],[128.53535,35.40337],[128.53241,35.4005],[128.52485,35.39598],[128.52302,35.39557],[128.5204,35.39605],[128.5187,35.39443],[128.5241,35.39176],[128.52887,35.39066],[128.53399,35.39018],[128.53844,35.38805],[128.54735,35.38119],[128.54959,35.38008],[128.55359,35.37891],[128.55914,35.3786],[128.56953,35.37865],[128.57698,35.37916],[128.57968,35.37958],[128.58547,35.38254],[128.58796,35.385],[128.59153,35.38932],[128.59702,35.39353],[128.596,35.39699],[128.59989,35.3983],[128.60283,35.40119],[128.60107,35.40202],[128.59968,35.40426],[128.60023,35.40728],[128.59836,35.41553],[128.59547,35.41918],[128.59181,35.41929],[128.58968,35.41804],[128.58589,35.4206],[128.58432,35.42923],[128.58417,35.43338],[128.5828,35.43472],[128.5758,35.43717],[128.57256,35.43946]]]},"properties":{"adm_nm":"경상남도 창녕군 길곡면","adm_cd2":"4874041000","sgg":"48740","sido":"48","sidonm":"경상남도","sggnm":"창녕군","adm_cd":"38530410"}},
{"type":"Feature","geometry":{"type":"Polygon","coordinates":[[[128.65107,35.42552],[128.64954,35.42671],[128.64726,35.4303],[128.64467,35.43275],[128.63614,35.43477],[128.63443,35.43687],[128.63443,35.44061],[128.63354,35.44459],[128.631,35.44909],[128.62602,35.45171],[128.6232,35.45159],[128.61757,35.44912],[128.61503,35.44593],[128.60823,35.44799],[128.60613,35.4502],[128.59525,35.45303],[128.58899,35.45233],[128.583,35.45382],[128.58109,35.45531],[128.5803,35.45703],[128.5781,35.45911],[128.57404,35.45557],[128.57426,35.45279],[128.5735,35.4493],[128.57141,35.44616],[128.57256,35.43946],[128.5758,35.43717],[128.5828,35.43472],[128.58417,35.43338],[128.58432,35.42923],[128.58589,35.4206],[128.58968,35.41804],[128.59181,35.41929],[128.59547,35.41918],[128.59836,35.41553],[128.60023,35.40728],[128.59968,35.40426],[128.60107,35.40202],[128.60283,35.40119],[128.59989,35.3983],[128.596,35.39699],[128.59702,35.39353],[128.60007,35.39425],[128.6024,35.39326],[128.60878,35.38694],[128.61319,35.38322],[128.61781,35.38051],[128.63068,35.37606],[128.63869,35.37355],[128.64311,35.37239],[128.65027,35.37139],[128.65617,35.37263],[128.64962,35.37655],[128.64758,35.37941],[128.64769,35.38068],[128.6504,35.38113],[128.65161,35.38257],[128.64984,35.38517],[128.64274,35.3846],[128.64102,35.38375],[128.63909,35.38425],[128.63867,35.38653],[128.63987,35.38722],[128.64333,35.38755],[128.64462,35.38862],[128.6437,35.39175],[128.64421,35.39319],[128.64706,35.39648],[128.64814,35.4006],[128.64582,35.4127],[128.64711,35.416],[128.65033,35.42085],[128.65107,35.42552]]]},"properties":{"adm_nm":"경상남도 창녕군 부곡면","adm_cd2":"4874042000","sgg":"48740","sido":"48","sidonm":"경상남도","sggnm":"창녕군","adm_cd":"38530420"}}
]}